[{"OBJECT_NAME":"FENGYUN 1C DEB","OBJECT_ID":"1999-025ALH","EPOCH":"2026-03-02T22:41:53.700288","MEAN_MOTION":14.09002518,"ECCENTRICITY":0.0108321,"INCLINATION":98.7835,"RA_OF_ASC_NODE":55.565,"ARG_OF_PERICENTER":323.8303,"MEAN_ANOMALY":64.9215,"EPHEMERIS_TYPE":0,"CLASSIFICATION_TYPE":"U","NORAD_CAT_ID":30567,"ELEMENT_SET_NO":999,"REV_AT_EPOCH":97903,"BSTAR":0.00033135,"MEAN_MOTION_DOT":5.62e-6,"MEAN_MOTION_DDOT":0},{"OBJECT_NAME":"FENGYUN 1C DEB","OBJECT_ID":"1999-025ALJ","EPOCH":"2026-03-03T01:13:24.947616","MEAN_MOTION":14.57658699,"ECCENTRICITY":0.0016452,"INCLINATION":98.9453,"RA_OF_ASC_NODE":243.0289,"ARG_OF_PERICENTER":299.11,"MEAN_ANOMALY":188.0231,"EPHEMERIS_TYPE":0,"CLASSIFICATION_TYPE":"U","NORAD_CAT_ID":30568,"ELEMENT_SET_NO":999,"REV_AT_EPOCH":98828,"BSTAR":0.0029235,"MEAN_MOTION_DOT":0.00013328,"MEAN_MOTION_DDOT":0},{"OBJECT_NAME":"FENGYUN 1C DEB","OBJECT_ID":"1999-025ALK","EPOCH":"2026-03-02T21:54:38.118816","MEAN_MOTION":14.78537833,"ECCENTRICITY":0.0008703,"INCLINATION":98.737,"RA_OF_ASC_NODE":212.3437,"ARG_OF_PERICENTER":201.3123,"MEAN_ANOMALY":158.7725,"EPHEMERIS_TYPE":0,"CLASSIFICATION_TYPE":"U","NORAD_CAT_ID":30569,"ELEMENT_SET_NO":999,"REV_AT_EPOCH":99389,"BSTAR":0.0046952,"MEAN_MOTION_DOT":0.00034437,"MEAN_MOTION_DDOT":0},{"OBJECT_NAME":"FENGYUN 1C DEB","OBJECT_ID":"1999-025ALL","EPOCH":"2026-03-03T01:05:35.138112","MEAN_MOTION":14.1442577,"ECCENTRICITY":0.0034557,"INCLINATION":98.7054,"RA_OF_ASC_NODE":97.5764,"ARG_OF_PERICENTER":345.6354,"MEAN_ANOMALY":75.9196,"EPHEMERIS_TYPE":0,"CLASSIFICATION_TYPE":"U","NORAD_CAT_ID":30570,"ELEMENT_SET_NO":999,"REV_AT_EPOCH":98133,"BSTAR":0.00042621,"MEAN_MOTION_DOT":7.78e-6,"MEAN_MOTION_DDOT":0},{"OBJECT_NAME":"FENGYUN 1C DEB","OBJECT_ID":"1999-025ALM","EPOCH":"2026-03-03T01:10:52.596768","MEAN_MOTION":14.10782352,"ECCENTRICITY":0.0021356,"INCLINATION":98.7235,"RA_OF_ASC_NODE":90.9548,"ARG_OF_PERICENTER":11.0147,"MEAN_ANOMALY":43.3034,"EPHEMERIS_TYPE":0,"CLASSIFICATION_TYPE":"U","NORAD_CAT_ID":30571,"ELEMENT_SET_NO":999,"REV_AT_EPOCH":98019,"BSTAR":0.00024123,"MEAN_MOTION_DOT":3.9e-6,"MEAN_MOTION_DDOT":0},{"OBJECT_NAME":"FENGYUN 1C DEB","OBJECT_ID":"1999-025ALN","EPOCH":"2026-03-03T00:31:49.039104","MEAN_MOTION":14.09003441,"ECCENTRICITY":0.0022842,"INCLINATION":98.763,"RA_OF_ASC_NODE":94.467,"ARG_OF_PERICENTER":67.9338,"MEAN_ANOMALY":321.9765,"EPHEMERIS_TYPE":0,"CLASSIFICATION_TYPE":"U","NORAD_CAT_ID":30572,"ELEMENT_SET_NO":999,"REV_AT_EPOCH":97892,"BSTAR":0.00036877,"MEAN_MOTION_DOT":5.97e-6,"MEAN_MOTION_DDOT":0},{"OBJECT_NAME":"FENGYUN 1C DEB","OBJECT_ID":"1999-025ALP","EPOCH":"2026-03-03T02:12:57.600576","MEAN_MOTION":14.14455915,"ECCENTRICITY":0.0087651,"INCLINATION":99.219,"RA_OF_ASC_NODE":107.4031,"ARG_OF_PERICENTER":49.6016,"MEAN_ANOMALY":331.933,"EPHEMERIS_TYPE":0,"CLASSIFICATION_TYPE":"U","NORAD_CAT_ID":30573,"ELEMENT_SET_NO":999,"REV_AT_EPOCH":97333,"BSTAR":0.0015398,"MEAN_MOTION_DOT":3.015e-5,"MEAN_MOTION_DDOT":0},{"OBJECT_NAME":"FENGYUN 1C DEB","OBJECT_ID":"1999-025ALQ","EPOCH":"2026-02-28T10:16:27.798528","MEAN_MOTION":13.78106103,"ECCENTRICITY":0.02205552,"INCLINATION":99.3049,"RA_OF_ASC_NODE":226.5031,"ARG_OF_PERICENTER":143.6399,"MEAN_ANOMALY":217.9967,"EPHEMERIS_TYPE":0,"CLASSIFICATION_TYPE":"U","NORAD_CAT_ID":30574,"ELEMENT_SET_NO":999,"REV_AT_EPOCH":94838,"BSTAR":0.0027474637,"MEAN_MOTION_DOT":3.269e-5,"MEAN_MOTION_DDOT":0},{"OBJECT_NAME":"FENGYUN 1C DEB","OBJECT_ID":"1999-025ALR","EPOCH":"2026-03-02T18:06:43.596000","MEAN_MOTION":14.40636883,"ECCENTRICITY":0.00525063,"INCLINATION":99.1639,"RA_OF_ASC_NODE":163.3218,"ARG_OF_PERICENTER":3.2724,"MEAN_ANOMALY":147.8198,"EPHEMERIS_TYPE":0,"CLASSIFICATION_TYPE":"U","NORAD_CAT_ID":30575,"ELEMENT_SET_NO":999,"REV_AT_EPOCH":99369,"BSTAR":0.000901499,"MEAN_MOTION_DOT":2.874e-5,"MEAN_MOTION_DDOT":0},{"OBJECT_NAME":"FENGYUN 1C DEB","OBJECT_ID":"1999-025ALT","EPOCH":"2026-03-02T13:16:36.360768","MEAN_MOTION":14.11302281,"ECCENTRICITY":0.0029958,"INCLINATION":98.7604,"RA_OF_ASC_NODE":98.5945,"ARG_OF_PERICENTER":58.5086,"MEAN_ANOMALY":94.8691,"EPHEMERIS_TYPE":0,"CLASSIFICATION_TYPE":"U","NORAD_CAT_ID":30577,"ELEMENT_SET_NO":999,"REV_AT_EPOCH":97910,"BSTAR":0.00052213,"MEAN_MOTION_DOT":9.04e-6,"MEAN_MOTION_DDOT":0},{"OBJECT_NAME":"FENGYUN 1C DEB","OBJECT_ID":"1999-025ALV","EPOCH":"2026-03-03T01:02:00.067776","MEAN_MOTION":14.05347313,"ECCENTRICITY":0.0052009,"INCLINATION":98.7997,"RA_OF_ASC_NODE":89.3828,"ARG_OF_PERICENTER":237.4016,"MEAN_ANOMALY":178.3383,"EPHEMERIS_TYPE":0,"CLASSIFICATION_TYPE":"U","NORAD_CAT_ID":30579,"ELEMENT_SET_NO":999,"REV_AT_EPOCH":97585,"BSTAR":0.00019346,"MEAN_MOTION_DOT":2.74e-6,"MEAN_MOTION_DDOT":0},{"OBJECT_NAME":"FENGYUN 1C DEB","OBJECT_ID":"1999-025ALZ","EPOCH":"2026-03-03T01:41:11.645088","MEAN_MOTION":14.17421245,"ECCENTRICITY":0.0194645,"INCLINATION":99.1457,"RA_OF_ASC_NODE":285.6627,"ARG_OF_PERICENTER":88.5888,"MEAN_ANOMALY":273.7573,"EPHEMERIS_TYPE":0,"CLASSIFICATION_TYPE":"U","NORAD_CAT_ID":30594,"ELEMENT_SET_NO":999,"REV_AT_EPOCH":98717,"BSTAR":0.00016712,"MEAN_MOTION_DOT":3.61e-6,"MEAN_MOTION_DDOT":0},{"OBJECT_NAME":"FENGYUN 1C DEB","OBJECT_ID":"1999-025AMB","EPOCH":"2026-03-02T23:16:23.609280","MEAN_MOTION":14.3453944,"ECCENTRICITY":0.0248985,"INCLINATION":98.4184,"RA_OF_ASC_NODE":62.6833,"ARG_OF_PERICENTER":50.2024,"MEAN_ANOMALY":4.1579,"EPHEMERIS_TYPE":0,"CLASSIFICATION_TYPE":"U","NORAD_CAT_ID":30596,"ELEMENT_SET_NO":999,"REV_AT_EPOCH":99711,"BSTAR":0.00043371,"MEAN_MOTION_DOT":1.687e-5,"MEAN_MOTION_DDOT":0},{"OBJECT_NAME":"FENGYUN 1C DEB","OBJECT_ID":"1999-025AMC","EPOCH":"2026-03-02T18:38:07.161792","MEAN_MOTION":15.05225041,"ECCENTRICITY":0.00303285,"INCLINATION":98.9477,"RA_OF_ASC_NODE":14.8309,"ARG_OF_PERICENTER":271.6732,"MEAN_ANOMALY":88.1017,"EPHEMERIS_TYPE":0,"CLASSIFICATION_TYPE":"U","NORAD_CAT_ID":30597,"ELEMENT_SET_NO":999,"REV_AT_EPOCH":99735,"BSTAR":0.0064029401,"MEAN_MOTION_DOT":0.00093409,"MEAN_MOTION_DDOT":0},{"OBJECT_NAME":"FENGYUN 1C DEB","OBJECT_ID":"1999-025AME","EPOCH":"2026-03-03T00:19:25.974048","MEAN_MOTION":14.20054577,"ECCENTRICITY":0.0302649,"INCLINATION":98.6015,"RA_OF_ASC_NODE":76.5285,"ARG_OF_PERICENTER":112.1274,"MEAN_ANOMALY":251.2322,"EPHEMERIS_TYPE":0,"CLASSIFICATION_TYPE":"U","NORAD_CAT_ID":30599,"ELEMENT_SET_NO":999,"REV_AT_EPOCH":98306,"BSTAR":0.0005977,"MEAN_MOTION_DOT":1.971e-5,"MEAN_MOTION_DDOT":0},{"OBJECT_NAME":"FENGYUN 1C DEB","OBJECT_ID":"1999-025AMF","EPOCH":"2026-03-02T19:27:23.164128","MEAN_MOTION":14.0895328,"ECCENTRICITY":0.03270177,"INCLINATION":98.3912,"RA_OF_ASC_NODE":6.0934,"ARG_OF_PERICENTER":18.4279,"MEAN_ANOMALY":342.8418,"EPHEMERIS_TYPE":0,"CLASSIFICATION_TYPE":"U","NORAD_CAT_ID":30600,"ELEMENT_SET_NO":999,"REV_AT_EPOCH":95559,"BSTAR":0.006662217,"MEAN_MOTION_DOT":0.00018915,"MEAN_MOTION_DDOT":0}]
