FENGYUN 1C DEB          
1 30567U 99025ALH 26061.94576042  .00000562  00000+0  33135-3 0  9998
2 30567  98.7835  55.5650 0108321 323.8303  64.9215 14.09002518979031
FENGYUN 1C DEB          
1 30568U 99025ALJ 26062.05098319  .00013328  00000+0  29235-2 0  9997
2 30568  98.9453 243.0289 0016452 299.1100 188.0231 14.57658699988288
FENGYUN 1C DEB          
1 30569U 99025ALK 26061.91294119  .00034437  00000+0  46952-2 0  9997
2 30569  98.7370 212.3437 0008703 201.3123 158.7725 14.78537833993893
FENGYUN 1C DEB          
1 30570U 99025ALL 26062.04554558  .00000778  00000+0  42621-3 0  9991
2 30570  98.7054  97.5764 0034557 345.6354  75.9196 14.14425770981338
FENGYUN 1C DEB          
1 30571U 99025ALM 26062.04921987  .00000390  00000+0  24123-3 0  9993
2 30571  98.7235  90.9548 0021356  11.0147  43.3034 14.10782352980195
FENGYUN 1C DEB          
1 30572U 99025ALN 26062.02209536  .00000597  00000+0  36877-3 0  9999
2 30572  98.7630  94.4670 0022842  67.9338 321.9765 14.09003441978920
FENGYUN 1C DEB          
1 30573U 99025ALP 26062.09233334  .00003015  00000+0  15398-2 0  9992
2 30573  99.2190 107.4031 0087651  49.6016 331.9330 14.14455915973335
FENGYUN 1C DEB          
1 30574U 99025ALQ 26059.42809952  .00003269  00000+0  27475-2 0  9991
2 30574  99.3049 226.5031 0220555 143.6399 217.9967 13.78106103948381
FENGYUN 1C DEB          
1 30575U 99025ALR 26061.75467125  .00002874  00000+0  90150-3 0  9995
2 30575  99.1639 163.3218 0052506   3.2724 147.8198 14.40636883993696
FENGYUN 1C DEB          
1 30577U 99025ALT 26061.55319862  .00000904  00000+0  52213-3 0  9999
2 30577  98.7604  98.5945 0029958  58.5086  94.8691 14.11302281979109
FENGYUN 1C DEB          
1 30579U 99025ALV 26062.04305634  .00000274  00000+0  19346-3 0  9998
2 30579  98.7997  89.3828 0052009 237.4016 178.3383 14.05347313975850
FENGYUN 1C DEB          
1 30594U 99025ALZ 26062.07027367  .00000361  00000+0  16712-3 0  9993
2 30594  99.1457 285.6627 0194645  88.5888 273.7573 14.17421245987175
FENGYUN 1C DEB          
1 30596U 99025AMB 26061.96971770  .00001687  00000+0  43371-3 0  9991
2 30596  98.4184  62.6833 0248985  50.2024   4.1579 14.34539440997116
FENGYUN 1C DEB          
1 30597U 99025AMC 26061.77647178  .00093409  00000+0  64029-2 0  9998
2 30597  98.9477  14.8309 0030328 271.6732  88.1017 15.05225041997352
FENGYUN 1C DEB          
1 30599U 99025AME 26062.01349507  .00001971  00000+0  59770-3 0  9994
2 30599  98.6015  76.5285 0302649 112.1274 251.2322 14.20054577983060
FENGYUN 1C DEB          
1 30600U 99025AMF 26061.81068477  .00018915  00000+0  66622-2 0  9997
2 30600  98.3912   6.0934 0327017  18.4279 342.8418 14.08953280955599
